[{"OBJECT_NAME":"SL-8 R/B","OBJECT_ID":"1979-089B","EPOCH":"2026-03-12T07:28:59.793024","MEAN_MOTION":14.4235255,"ECCENTRICITY":0.00171274,"INCLINATION":74.0666,"RA_OF_ASC_NODE":86.189,"ARG_OF_PERICENTER":258.6308,"MEAN_ANOMALY":101.2924,"EPHEMERIS_TYPE":0,"CLASSIFICATION_TYPE":"U","NORAD_CAT_ID":11574,"ELEMENT_SET_NO":999,"REV_AT_EPOCH":43648,"BSTAR":0.00010617859,"MEAN_MOTION_DOT":3.25e-6,"MEAN_MOTION_DDOT":0},{"OBJECT_NAME":"SL-14 R/B","OBJECT_ID":"1980-005B","EPOCH":"2026-03-12T03:27:01.603584","MEAN_MOTION":14.9093359,"ECCENTRICITY":0.00163785,"INCLINATION":82.514,"RA_OF_ASC_NODE":304.9085,"ARG_OF_PERICENTER":150.4007,"MEAN_ANOMALY":209.8143,"EPHEMERIS_TYPE":0,"CLASSIFICATION_TYPE":"U","NORAD_CAT_ID":11672,"ELEMENT_SET_NO":999,"REV_AT_EPOCH":47685,"BSTAR":6.4461721e-5,"MEAN_MOTION_DOT":6.63e-6,"MEAN_MOTION_DDOT":0},{"OBJECT_NAME":"SL-8 R/B","OBJECT_ID":"1981-003B","EPOCH":"2026-03-12T01:17:21.349248","MEAN_MOTION":15.11073422,"ECCENTRICITY":0.02619044,"INCLINATION":82.9385,"RA_OF_ASC_NODE":287.8378,"ARG_OF_PERICENTER":170.4101,"MEAN_ANOMALY":190.2279,"EPHEMERIS_TYPE":0,"CLASSIFICATION_TYPE":"U","NORAD_CAT_ID":12139,"ELEMENT_SET_NO":999,"REV_AT_EPOCH":31503,"BSTAR":0.00048626106,"MEAN_MOTION_DOT":0.00019005,"MEAN_MOTION_DDOT":0},{"OBJECT_NAME":"SL-3 R/B","OBJECT_ID":"1981-046B","EPOCH":"2026-03-12T06:00:24.472800","MEAN_MOTION":15.42067424,"ECCENTRICITY":0.00193546,"INCLINATION":81.2299,"RA_OF_ASC_NODE":286.6692,"ARG_OF_PERICENTER":13.5245,"MEAN_ANOMALY":346.6512,"EPHEMERIS_TYPE":0,"CLASSIFICATION_TYPE":"U","NORAD_CAT_ID":12465,"ELEMENT_SET_NO":999,"REV_AT_EPOCH":43882,"BSTAR":0.00028736084,"MEAN_MOTION_DOT":0.00012391,"MEAN_MOTION_DDOT":0},{"OBJECT_NAME":"SL-3 R/B","OBJECT_ID":"1981-103B","EPOCH":"2026-03-12T06:31:01.039584","MEAN_MOTION":15.21411332,"ECCENTRICITY":0.00123191,"INCLINATION":81.1586,"RA_OF_ASC_NODE":210.4033,"ARG_OF_PERICENTER":277.535,"MEAN_ANOMALY":82.4482,"EPHEMERIS_TYPE":0,"CLASSIFICATION_TYPE":"U","NORAD_CAT_ID":12904,"ELEMENT_SET_NO":999,"REV_AT_EPOCH":97362,"BSTAR":0.00030001976,"MEAN_MOTION_DOT":6.77e-5,"MEAN_MOTION_DDOT":0},{"OBJECT_NAME":"SL-3 R/B","OBJECT_ID":"1982-013B","EPOCH":"2026-03-12T06:41:05.352288","MEAN_MOTION":15.22046228,"ECCENTRICITY":0.00227303,"INCLINATION":81.1758,"RA_OF_ASC_NODE":157.7369,"ARG_OF_PERICENTER":168.7893,"MEAN_ANOMALY":191.385,"EPHEMERIS_TYPE":0,"CLASSIFICATION_TYPE":"U","NORAD_CAT_ID":13068,"ELEMENT_SET_NO":999,"REV_AT_EPOCH":40474,"BSTAR":0.00020501802,"MEAN_MOTION_DOT":4.745e-5,"MEAN_MOTION_DDOT":0},{"OBJECT_NAME":"SL-3 R/B","OBJECT_ID":"1982-039B","EPOCH":"2026-03-12T05:47:03.097248","MEAN_MOTION":15.10098643,"ECCENTRICITY":0.00296173,"INCLINATION":81.1579,"RA_OF_ASC_NODE":213.0205,"ARG_OF_PERICENTER":316.1618,"MEAN_ANOMALY":43.7256,"EPHEMERIS_TYPE":0,"CLASSIFICATION_TYPE":"U","NORAD_CAT_ID":13154,"ELEMENT_SET_NO":999,"REV_AT_EPOCH":38202,"BSTAR":0.00019164635,"MEAN_MOTION_DOT":3.176e-5,"MEAN_MOTION_DDOT":0},{"OBJECT_NAME":"SL-3 R/B","OBJECT_ID":"1982-079B","EPOCH":"2026-03-12T07:00:08.686944","MEAN_MOTION":15.24843438,"ECCENTRICITY":0.00251578,"INCLINATION":81.1476,"RA_OF_ASC_NODE":190.005,"ARG_OF_PERICENTER":156.0042,"MEAN_ANOMALY":204.237,"EPHEMERIS_TYPE":0,"CLASSIFICATION_TYPE":"U","NORAD_CAT_ID":13403,"ELEMENT_SET_NO":999,"REV_AT_EPOCH":37809,"BSTAR":0.00029479791,"MEAN_MOTION_DOT":7.413e-5,"MEAN_MOTION_DDOT":0},{"OBJECT_NAME":"SL-14 R/B","OBJECT_ID":"1982-092B","EPOCH":"2026-03-12T06:27:14.939424","MEAN_MOTION":14.86669232,"ECCENTRICITY":0.00188897,"INCLINATION":82.569,"RA_OF_ASC_NODE":138.9872,"ARG_OF_PERICENTER":294.3272,"MEAN_ANOMALY":129.1818,"EPHEMERIS_TYPE":0,"CLASSIFICATION_TYPE":"U","NORAD_CAT_ID":13553,"ELEMENT_SET_NO":999,"REV_AT_EPOCH":32931,"BSTAR":5.8417502e-5,"MEAN_MOTION_DOT":5.44e-6,"MEAN_MOTION_DDOT":0},{"OBJECT_NAME":"SL-3 R/B","OBJECT_ID":"1983-010B","EPOCH":"2026-03-12T06:49:43.582080","MEAN_MOTION":15.46460028,"ECCENTRICITY":0.00177572,"INCLINATION":81.1061,"RA_OF_ASC_NODE":359.0661,"ARG_OF_PERICENTER":42.6261,"MEAN_ANOMALY":317.6358,"EPHEMERIS_TYPE":0,"CLASSIFICATION_TYPE":"U","NORAD_CAT_ID":13819,"ELEMENT_SET_NO":999,"REV_AT_EPOCH":35834,"BSTAR":0.00036815435,"MEAN_MOTION_DOT":0.00018399,"MEAN_MOTION_DDOT":0},{"OBJECT_NAME":"SL-3 R/B","OBJECT_ID":"1983-075B","EPOCH":"2026-03-12T05:22:12.913248","MEAN_MOTION":15.38485174,"ECCENTRICITY":0.00203625,"INCLINATION":97.6146,"RA_OF_ASC_NODE":75.897,"ARG_OF_PERICENTER":216.2304,"MEAN_ANOMALY":143.7563,"EPHEMERIS_TYPE":0,"CLASSIFICATION_TYPE":"U","NORAD_CAT_ID":14208,"ELEMENT_SET_NO":999,"REV_AT_EPOCH":33054,"BSTAR":0.00032794371,"MEAN_MOTION_DOT":0.00012457,"MEAN_MOTION_DDOT":0},{"OBJECT_NAME":"COSMOS 1536","OBJECT_ID":"1984-013A","EPOCH":"2026-03-12T03:35:20.592096","MEAN_MOTION":15.23862176,"ECCENTRICITY":0.00125295,"INCLINATION":82.5429,"RA_OF_ASC_NODE":105.405,"ARG_OF_PERICENTER":273.6666,"MEAN_ANOMALY":86.3138,"EPHEMERIS_TYPE":0,"CLASSIFICATION_TYPE":"U","NORAD_CAT_ID":14699,"ELEMENT_SET_NO":999,"REV_AT_EPOCH":27299,"BSTAR":0.00027693522,"MEAN_MOTION_DOT":6.724e-5,"MEAN_MOTION_DDOT":0},{"OBJECT_NAME":"SL-14 R/B","OBJECT_ID":"1984-027B","EPOCH":"2026-03-11T23:34:57.875520","MEAN_MOTION":14.85978988,"ECCENTRICITY":0.00171865,"INCLINATION":82.5389,"RA_OF_ASC_NODE":242.8615,"ARG_OF_PERICENTER":330.0492,"MEAN_ANOMALY":29.9739,"EPHEMERIS_TYPE":0,"CLASSIFICATION_TYPE":"U","NORAD_CAT_ID":14820,"ELEMENT_SET_NO":999,"REV_AT_EPOCH":24797,"BSTAR":6.2610393e-5,"MEAN_MOTION_DOT":5.72e-6,"MEAN_MOTION_DDOT":0},{"OBJECT_NAME":"SL-8 R/B","OBJECT_ID":"1985-006B","EPOCH":"2026-03-11T23:07:27.487776","MEAN_MOTION":14.37784706,"ECCENTRICITY":0.0018363,"INCLINATION":74.0432,"RA_OF_ASC_NODE":256.9639,"ARG_OF_PERICENTER":174.2338,"MEAN_ANOMALY":295.6293,"EPHEMERIS_TYPE":0,"CLASSIFICATION_TYPE":"U","NORAD_CAT_ID":15483,"ELEMENT_SET_NO":999,"REV_AT_EPOCH":15435,"BSTAR":0.00012719,"MEAN_MOTION_DOT":3.58e-6,"MEAN_MOTION_DDOT":0},{"OBJECT_NAME":"SL-12 R/B(2)","OBJECT_ID":"1985-042D","EPOCH":"2026-03-12T07:16:06.786912","MEAN_MOTION":14.21983167,"ECCENTRICITY":0.00331214,"INCLINATION":71.1063,"RA_OF_ASC_NODE":82.2072,"ARG_OF_PERICENTER":123.8396,"MEAN_ANOMALY":327.4127,"EPHEMERIS_TYPE":0,"CLASSIFICATION_TYPE":"U","NORAD_CAT_ID":15772,"ELEMENT_SET_NO":999,"REV_AT_EPOCH":11476,"BSTAR":9.1004914e-5,"MEAN_MOTION_DOT":1.55e-6,"MEAN_MOTION_DDOT":0},{"OBJECT_NAME":"SL-14 R/B","OBJECT_ID":"1985-069B","EPOCH":"2026-03-12T07:16:44.014080","MEAN_MOTION":14.86436837,"ECCENTRICITY":0.001871,"INCLINATION":82.5289,"RA_OF_ASC_NODE":22.4756,"ARG_OF_PERICENTER":178.9744,"MEAN_ANOMALY":181.1515,"EPHEMERIS_TYPE":0,"CLASSIFICATION_TYPE":"U","NORAD_CAT_ID":15945,"ELEMENT_SET_NO":999,"REV_AT_EPOCH":17322,"BSTAR":7.5042234e-5,"MEAN_MOTION_DOT":6.89e-6,"MEAN_MOTION_DDOT":0},{"OBJECT_NAME":"SL-16 R/B","OBJECT_ID":"1985-097B","EPOCH":"2026-03-12T07:38:10.233600","MEAN_MOTION":14.16598273,"ECCENTRICITY":0.00098496,"INCLINATION":71.0023,"RA_OF_ASC_NODE":135.0211,"ARG_OF_PERICENTER":256.5609,"MEAN_ANOMALY":171.4207,"EPHEMERIS_TYPE":0,"CLASSIFICATION_TYPE":"U","NORAD_CAT_ID":16182,"ELEMENT_SET_NO":999,"REV_AT_EPOCH":8760,"BSTAR":-4.7250958e-5,"MEAN_MOTION_DOT":-1.42e-6,"MEAN_MOTION_DDOT":0}]
