SL-8 R/B                
1 11574U 79089B   26071.31180316  .00000325  00000+0  10618-3 0  9998
2 11574  74.0666  86.1890 0017127 258.6308 101.2924 14.42352550436486
SL-14 R/B               
1 11672U 80005B   26071.14376856  .00000663  00000+0  64462-4 0  9996
2 11672  82.5140 304.9085 0016378 150.4007 209.8143 14.90933590476850
SL-8 R/B                
1 12139U 81003B   26071.05371932  .00019005  00000+0  48626-3 0  9997
2 12139  82.9385 287.8378 0261904 170.4101 190.2279 15.11073422315030
SL-3 R/B                
1 12465U 81046B   26071.25028325  .00012391  00000+0  28736-3 0  9994
2 12465  81.2299 286.6692 0019354  13.5245 346.6512 15.42067424438829
SL-3 R/B                
1 12904U 81103B   26071.27153981  .00006770  00000+0  30002-3 0  9998
2 12904  81.1586 210.4033 0012319 277.5350  82.4482 15.21411332973623
SL-3 R/B                
1 13068U 82013B   26071.27853417  .00004745  00000+0  20502-3 0  9996
2 13068  81.1758 157.7369 0022730 168.7893 191.3850 15.22046228404742
SL-3 R/B                
1 13154U 82039B   26071.24100807  .00003176  00000+0  19165-3 0  9995
2 13154  81.1579 213.0205 0029617 316.1618  43.7256 15.10098643382020
SL-3 R/B                
1 13403U 82079B   26071.29176721  .00007413  00000+0  29480-3 0  9998
2 13403  81.1476 190.0050 0025157 156.0042 204.2370 15.24843438378090
SL-14 R/B               
1 13553U 82092B   26071.26892291  .00000544  00000+0  58418-4 0  9995
2 13553  82.5690 138.9872 0018889 294.3272 129.1818 14.86669232329315
SL-3 R/B                
1 13819U 83010B   26071.28453220  .00018399  00000+0  36815-3 0  9991
2 13819  81.1061 359.0661 0017757  42.6261 317.6358 15.46460028358341
SL-3 R/B                
1 14208U 83075B   26071.22376057  .00012457  00000+0  32794-3 0  9992
2 14208  97.6146  75.8970 0020362 216.2304 143.7563 15.38485174330547
COSMOS 1536             
1 14699U 84013A   26071.14954389  .00006724  00000+0  27694-3 0  9993
2 14699  82.5429 105.4050 0012529 273.6666  86.3138 15.23862176272990
SL-14 R/B               
1 14820U 84027B   26070.98261430  .00000572  00000+0  62610-4 0  9996
2 14820  82.5389 242.8615 0017186 330.0492  29.9739 14.85978988247979
SL-8 R/B                
1 15483U 85006B   26070.96351259  .00000358  00000+0  12719-3 0  9993
2 15483  74.0432 256.9639 0018363 174.2338 295.6293 14.37784706154353
SL-12 R/B(2)            
1 15772U 85042D   26071.30285633  .00000155  00000+0  91005-4 0  9996
2 15772  71.1063  82.2072 0033121 123.8396 327.4127 14.21983167114762
SL-14 R/B               
1 15945U 85069B   26071.30328720  .00000689  00000+0  75042-4 0  9997
2 15945  82.5289  22.4756 0018710 178.9744 181.1515 14.86436837173220
SL-16 R/B               
1 16182U 85097B   26071.31817400 -.00000142  00000+0 -47251-4 0  9998
2 16182  71.0023 135.0211 0009849 256.5609 171.4207 14.16598273 87608
